*******************************************************************************
 Revised: Sep 13, 2016              Jupiter                                 599
 
 PHYSICAL DATA (updated 2009-Jan-28):
  Mass (10^24 kg)       =  1898.13+-.19   Density (g/cm^3)       =  1.326
  Equat. radius (1 bar) = 71492+-4 km     Polar radius (km)      = 66854+-10
  Volumetric mean radius= 69911+-6 km     Flattening             =  0.06487

  Rotation period       = 9h 55m 29.685s  Rot. rate(10^-4 rad/s) =  1.75865
  m = w^2a^3/GM         =  0.089195       Hydrostatic flat., fh  =  0.06509
  Inferred rot. period  =  9.894+-0.02 hr ks = 3*J2/m            =  0.494
  Mom. of inert. I/MRo^2=  0.254          I/MRo^2 (upper bound)  =  0.267 
  Rocky core mass (Mc/M)=  0.0261         Y factor (He/H ratio)  =  0.18+-0.04

  GM (km^3/s^2)         = 126,686,511     GM 1-sigma (km^3/s^2)  = +-100
  Equ. grav, ge (m/s^2) = 24.79           Pol. grav, gp (m/s^2)  = 28.34

  Geometric albedo      =  0.52           Visual magnitude V(1,0)= -9.40
  Vis. mag. (opposition)= -2.70           Obliquity to orbit     =  3.12 deg
  Sidereal orbit period = 11.862615 yr    Sidereal orbit period  = 4332.820 d
  Mean daily motion     = 0.0831294 deg/d Mean orbit velocity    = 13.0697 km/s

  Atmos. temp. (1 bar)  = 165+-5 K        Heat flow/mass (x10^7) = 15 erg/gm*s
  Planetary Solar Const =  50.5 W/m^2     Dipole tilt/offset     = 9.6deg/0.1Rp 
  Escape velocity (km/s)=  59.5           Mag.dip.mom(gauss-Rp^3)= 4.2 
  A_roche(ice)/Rp       =  2.76           Hill's sphere rad. Rp  = 740
*******************************************************************************
 
 
*******************************************************************************
Ephemeris / WWW_USER Tue Jun 20 14:48:03 2017 Pasadena, USA      / Horizons    
*******************************************************************************
Target body name: Jupiter (599)                   {source: jup340_merged}
Center body name: Sun (10)                        {source: jup340_merged}
Center-site name: BODY CENTER
*******************************************************************************
Start time      : A.D. 2017-Jun-19 00:00:00.0000 TDB
Stop  time      : A.D. 2030-Jun-19 00:00:00.0000 TDB
Step-size       : 1440 minutes
*******************************************************************************
Center geodetic : 0.00000000,0.00000000,0.0000000 {E-lon(deg),Lat(deg),Alt(km)}
Center cylindric: 0.00000000,0.00000000,0.0000000 {E-lon(deg),Dxy(km),Dz(km)}
Center radii    : 696000.0 x 696000.0 x 696000.0 k{Equator, meridian, pole}    
Output units    : KM-S                                                         
Output type     : GEOMETRIC cartesian states
Output format   : 1 (position only)
Reference frame : ICRF/J2000.0                                                 
Coordinate systm: Ecliptic and Mean Equinox of Reference Epoch                 
*******************************************************************************
            JDTDB,            Calendar Date (TDB),                      X,                      Y,                      Z,
**************************************************************************************************************************
$$SOE
2458506.500000000, A.D. 2019-Jan-23 00:00:00.0000, -2.966447779424868E+08, -7.422207191103560E+08,  9.720275926965594E+06,
2458507.500000000, A.D. 2019-Jan-24 00:00:00.0000, -2.956088678594940E+08, -7.425860637220060E+08,  9.698615927428365E+06,
2458508.500000000, A.D. 2019-Jan-25 00:00:00.0000, -2.945724439630077E+08, -7.429500178515238E+08,  9.676934522044808E+06,
2458509.500000000, A.D. 2019-Jan-26 00:00:00.0000, -2.935354068419803E+08, -7.433124959512200E+08,  9.655235786203802E+06,
2458510.500000000, A.D. 2019-Jan-27 00:00:00.0000, -2.924977678149605E+08, -7.436736294305547E+08,  9.633514955683112E+06,
2458511.500000000, A.D. 2019-Jan-28 00:00:00.0000, -2.914595248876426E+08, -7.440331832696766E+08,  9.611781222189784E+06,
2458512.500000000, A.D. 2019-Jan-29 00:00:00.0000, -2.904207297820225E+08, -7.443912778656797E+08,  9.590029338593245E+06,
2458513.500000000, A.D. 2019-Jan-30 00:00:00.0000, -2.893815269588941E+08, -7.447479136363761E+08,  9.568256837096334E+06,
2458514.500000000, A.D. 2019-Jan-31 00:00:00.0000, -2.883416999620161E+08, -7.451031905946183E+08,  9.546463490333408E+06,
2458515.500000000, A.D. 2019-Feb-01 00:00:00.0000, -2.873013620840979E+08, -7.454570753712585E+08,  9.524649098558247E+06,
2458516.500000000, A.D. 2019-Feb-02 00:00:00.0000, -2.862603874691179E+08, -7.458095035328330E+08,  9.502817310498685E+06,
2458517.500000000, A.D. 2019-Feb-03 00:00:00.0000, -2.852188202381275E+08, -7.461605833848920E+08,  9.480963585415334E+06,
2458518.500000000, A.D. 2019-Feb-04 00:00:00.0000, -2.841766054673035E+08, -7.465100780282248E+08,  9.459097905482650E+06,
2458519.500000000, A.D. 2019-Feb-05 00:00:00.0000, -2.831338338517794E+08, -7.468580911996424E+08,  9.437215128603518E+06,
2458520.500000000, A.D. 2019-Feb-06 00:00:00.0000, -2.820906426975718E+08, -7.472045841593628E+08,  9.415314246384382E+06,
2458521.500000000, A.D. 2019-Feb-07 00:00:00.0000, -2.810468526832477E+08, -7.475497011712425E+08,  9.393392830397427E+06,
2458522.500000000, A.D. 2019-Feb-08 00:00:00.0000, -2.800025768582903E+08, -7.478933739097419E+08,  9.371452033478349E+06,
2458523.500000000, A.D. 2019-Feb-09 00:00:00.0000, -2.789576879977326E+08, -7.482355766873993E+08,  9.349494172468662E+06,
2458524.500000000, A.D. 2019-Feb-10 00:00:00.0000, -2.779122676707682E+08, -7.485764040810674E+08,  9.327514619420141E+06,
2458525.500000000, A.D. 2019-Feb-11 00:00:00.0000, -2.768662147203273E+08, -7.489156509293752E+08,  9.305522915554762E+06,
2458526.500000000, A.D. 2019-Feb-12 00:00:00.0000, -2.758196521763175E+08, -7.492534150860480E+08,  9.283513822598815E+06,
2458527.500000000, A.D. 2019-Feb-13 00:00:00.0000, -2.747726909117224E+08, -7.495896425607902E+08,  9.261487283506751E+06,
2458528.500000000, A.D. 2019-Feb-14 00:00:00.0000, -2.737251817828017E+08, -7.499245253875551E+08,  9.239438669408560E+06,
2458529.500000000, A.D. 2019-Feb-15 00:00:00.0000, -2.726772069966325E+08, -7.502579680521522E+08,  9.217370632124156E+06,
2458530.500000000, A.D. 2019-Feb-16 00:00:00.0000, -2.716286270674275E+08, -7.505899813900833E+08,  9.195284370568275E+06,
2458531.500000000, A.D. 2019-Feb-17 00:00:00.0000, -2.705795356257663E+08, -7.509206279783907E+08,  9.173176129602164E+06,
2458532.500000000, A.D. 2019-Feb-18 00:00:00.0000, -2.695297800260070E+08, -7.512497287938737E+08,  9.151055179954797E+06,
2458533.500000000, A.D. 2019-Feb-19 00:00:00.0000, -2.684795062684824E+08, -7.515773464140292E+08,  9.128917287632614E+06,
2458534.500000000, A.D. 2019-Feb-20 00:00:00.0000, -2.674287968074225E+08, -7.519033991482184E+08,  9.106763746760011E+06,
2458535.500000000, A.D. 2019-Feb-21 00:00:00.0000, -2.663775511666097E+08, -7.522280983109916E+08,  9.084588413057268E+06,
2458536.500000000, A.D. 2019-Feb-22 00:00:00.0000, -2.653258279995611E+08, -7.525513143083485E+08,  9.062395522478849E+06,
2458537.500000000, A.D. 2019-Feb-23 00:00:00.0000, -2.642735050967139E+08, -7.528730868180434E+08,  9.040185011257946E+06,
2458538.500000000, A.D. 2019-Feb-24 00:00:00.0000, -2.632206997792668E+08, -7.531934427888186E+08,  9.017953991402596E+06,
2458539.500000000, A.D. 2019-Feb-25 00:00:00.0000, -2.621672366724911E+08, -7.535122470864418E+08,  8.995710449154943E+06,
2458540.500000000, A.D. 2019-Feb-26 00:00:00.0000, -2.611132927127031E+08, -7.538295341875709E+08,  8.973450862227291E+06,
2458541.500000000, A.D. 2019-Feb-27 00:00:00.0000, -2.600589279685232E+08, -7.541452230771735E+08,  8.951176875345349E+06,
2458542.500000000, A.D. 2019-Feb-28 00:00:00.0000, -2.590040966298073E+08, -7.544595534492586E+08,  8.928880509319067E+06,
2458543.500000000, A.D. 2019-Mar-01 00:00:00.0000, -2.579488195835601E+08, -7.547723900862494E+08,  8.906566829519391E+06,
2458544.500000000, A.D. 2019-Mar-02 00:00:00.0000, -2.568929867037343E+08, -7.550838133804398E+08,  8.884234225650221E+06,
2458545.500000000, A.D. 2019-Mar-03 00:00:00.0000, -2.558367098874076E+08, -7.553938218647610E+08,  8.861880866934806E+06,
2458546.500000000, A.D. 2019-Mar-04 00:00:00.0000, -2.547797816049870E+08, -7.557023320438013E+08,  8.839513282433569E+06,
2458547.500000000, A.D. 2019-Mar-05 00:00:00.0000, -2.537223810074733E+08, -7.560093378321111E+08,  8.817129472227514E+06,
2458548.500000000, A.D. 2019-Mar-06 00:00:00.0000, -2.526645302749372E+08, -7.563147545016494E+08,  8.794731752799034E+06,
2458549.500000000, A.D. 2019-Mar-07 00:00:00.0000, -2.516062306730410E+08, -7.566188189660724E+08,  8.772311454121411E+06,
2458550.500000000, A.D. 2019-Mar-08 00:00:00.0000, -2.505474584092927E+08, -7.569213801857585E+08,  8.749874827400625E+06,
2458551.500000000, A.D. 2019-Mar-09 00:00:00.0000, -2.494881280930093E+08, -7.572225330525782E+08,  8.727419404864311E+06,
2458552.500000000, A.D. 2019-Mar-10 00:00:00.0000, -2.484283480494556E+08, -7.575222315933039E+08,  8.704944911590159E+06,
2458553.500000000, A.D. 2019-Mar-11 00:00:00.0000, -2.473679086892011E+08, -7.578204356504674E+08,  8.682456237300873E+06,
2458554.500000000, A.D. 2019-Mar-12 00:00:00.0000, -2.463070014493577E+08, -7.581170905889014E+08,  8.659953039264858E+06,
2458555.500000000, A.D. 2019-Mar-13 00:00:00.0000, -2.452456343827228E+08, -7.584121194156854E+08,  8.637437600139678E+06,
2458556.500000000, A.D. 2019-Mar-14 00:00:00.0000, -2.441838731146594E+08, -7.587057539216149E+08,  8.614900465103686E+06,
2458557.500000000, A.D. 2019-Mar-15 00:00:00.0000, -2.431216608210022E+08, -7.589978552867999E+08,  8.592347963265121E+06,
2458558.500000000, A.D. 2019-Mar-16 00:00:00.0000, -2.420589483522933E+08, -7.592885453891785E+08,  8.569776259341300E+06,
